{"geometry":{"type":"Point","coordinates":[-4.500000,54.000000]},"type":"Feature","properties":{"name:en":"United Kingdom","hierarchy":["tgn:7008591","tgn:1000003","tgn:7029392"],"name:ar":"\u0627\u0644\u0645\u0645 \u0649\u064e\u0629 \u0627\u0644\u0645\u062e\u062d\u062f\u0629 \u0628\u064b\u0631\u064b\u0637\u0627\u0647 \u0627\u064e \u0627 \u0639\u064b\u0638\u0645\u0649 \u0648\u0622 \u0631\u064d\u064b\u064a\u062f\u0627 \u0627\u0636\u064b\u0645\u0627 \u0629\u064b\u064e","placetype":["aat:300387054","aat:300128207","aat:300387053","aat:300387174","aat:300387189"],"name:fr":"Royaume-Uni de Grande-Bretagne et d'Irlande du Nord","name:ru":"\u0421\u043e\u0435\u0434\u0438\u043d\u0435\u043d\u043d\u043e\u0435 \u041a\u043e\u0440\u043e\u043b\u0435\u0432\u0441\u0442\u0432\u043e \u0412\u0435\u043b\u0438\u043a\u043e\u0431\u0440\u0438\u0442\u0430\u043d\u0438\u0438 \u0438 \u0421\u0435\u0432\u0435\u0440\u043d\u043e\u0439 \u0418\u0440\u043b\u0430\u043d\u0434\u0438\u0438","name:zh":"\u5927\u4e0d\u5217\u98a0\u53ca\u5317\u7231\u5c14\u5170\u8054\u5408\u738b\u56fd","id":7008591,"name:es":"Reino Unido de Gran Breta\u00f1a e Irlanda del Norte"}}
