{"geometry":{"type":"Point","coordinates":[127.000000,40.000000]},"type":"Feature","properties":{"name:pt":"Cor\u00e9ia do Norte","name:en":"North Korea","name:nl":"Noord Korea","name:xx":"Chos\u014fn","hierarchy":["tgn:1000122","tgn:1000004","tgn:7029392"],"name:ar":"\u062c\u064f\u0647\u0648\u0631 \u0629\u064b \u0647\u0648\u0631\u064a\u0627 \u0627\u0636\u064b\u0639\u0628 \u0629\u064e \u0627\u0644\u062f\u0651\u064a\u0645\u0644\u0631\u0627\u0637 \u0629\u064e","name:de":"Nordkorea","placetype":["aat:300387054","aat:300179493","aat:300128207","aat:300387174","aat:300387136"],"name:ko":"\uc870\uc120","name:fr":"R\u00e9publique populaire d\u00e9mocratique de Cor\u00e9e","name:ru":"\u041a\u043e\u0440\u0435\u0439\u0441\u043a\u0430\u044f \u041d\u0430\u0440\u043e\u0434\u043d\u043e-\u0414\u0435\u043c\u043e\u043a\u0440\u0430\u0442\u0438\u0447\u0435\u0441\u043a\u0430\u044f \u0420\u0435\u0441\u043f\u0443\u0431\u043b\u0438\u043a\u0430","name:zh":"\u671d\u9c9c\u6c11\u4e3b\u4e3b\u4e49\u4eba\u6c11\u5171\u548c\u56fd","id":1000122,"name:es":"Rep\u00fablica Popular Democr\u00e1tica de Corea"}}
